[{"OBJECT_NAME":"DMSP 5D-3 F17 (USA 191)","OBJECT_ID":"2006-050A","EPOCH":"2026-03-09T23:03:38.328192","MEAN_MOTION":14.14964226,"ECCENTRICITY":0.00097378,"INCLINATION":98.7414,"RA_OF_ASC_NODE":77.5505,"ARG_OF_PERICENTER":346.0855,"MEAN_ANOMALY":14.0049,"EPHEMERIS_TYPE":0,"CLASSIFICATION_TYPE":"U","NORAD_CAT_ID":29522,"ELEMENT_SET_NO":999,"REV_AT_EPOCH":99838,"BSTAR":0.00013823523,"MEAN_MOTION_DOT":2.24e-6,"MEAN_MOTION_DDOT":0},{"OBJECT_NAME":"DELTA 2 R\/B(1)","OBJECT_ID":"1992-027B","EPOCH":"2026-03-09T19:59:41.933472","MEAN_MOTION":12.22373025,"ECCENTRICITY":0.13573244,"INCLINATION":19.674,"RA_OF_ASC_NODE":269.5661,"ARG_OF_PERICENTER":106.1474,"MEAN_ANOMALY":269.2214,"EPHEMERIS_TYPE":0,"CLASSIFICATION_TYPE":"U","NORAD_CAT_ID":21965,"ELEMENT_SET_NO":999,"REV_AT_EPOCH":50381,"BSTAR":0.00066052045,"MEAN_MOTION_DOT":2.218e-5,"MEAN_MOTION_DDOT":0}]
